QIANFAN-33              
1 61566U 24185Q   25263.28622773  .00000439  00000+0  30805-3 0  9993
2 61566  88.9732  88.1191 0005535 212.4981 147.5856 13.96439397 57514
QIANFAN-34              
1 61567U 24185R   25263.30826544  .00000497  00000+0  31630-3 0  9990
2 61567  88.9711  87.7904 0003956 219.1015 140.9880 14.02191931 57663
QIANFAN-35              
1 61568U 24185S   25263.30244569  .00000912  00000+0  36398-3 0  9990
2 61568  88.9736  86.6795 0006234 181.1427 178.9754 14.27732560 58279
QIANFAN-36              
1 61569U 24185T   25263.25825816  .00000167  00000+0  22281-3 0  9993
2 61569  88.9718  89.7479 0004238 292.5845  67.4860 13.55554121 56617
QIANFAN-37              
1 62238U 24232B   25263.22538103  .00000096  00000+0  12983-3 0  9996
2 62238  88.9972  49.7504 0001665  75.8815 284.2521 13.50963668 87890
QIANFAN-38              
1 62239U 24232C   25263.32428483  .00000091  00000+0  12266-3 0  9996
2 62239  88.9979  49.6505 0016319  78.7889 281.5096 13.50967348 87967
QIANFAN-39              
1 62240U 24232D   25263.30150773  .00000389  00000+0  15926-3 0  9996
2 62240  88.9981  46.8393 0015804   0.0264   0.0927 14.25248539 89505
QIANFAN-40              
1 62241U 24232E   25263.28312337  .00000091  00000+0  12226-3 0  9990
2 62241  89.0009  49.2157 0015422  86.1190 274.1724 13.50972154 88325
